CUTE-1 (CO-55)          
1 27844U 03031E   26065.96450898  .00000418  00000+0  20017-3 0  9995
2 27844  98.6780  75.7971 0010585 119.5034 240.7202 14.24263294177125
CUBESAT XI-IV (CO-57)   
1 27848U 03031J   26065.97229987  .00000340  00000+0  16835-3 0  9990
2 27848  98.6809  75.5995 0010270 135.9414 224.2584 14.23558791176835
CUBESAT XI-V            
1 28895U 05043F   26065.38576487  .00002828  00000+0  45496-3 0  9991
2 28895  98.2825 218.9473 0014555 167.7954 192.3608 14.72302296 86628
CUTE-1.7+APD II (CO-65) 
1 32785U 08021C   26066.12632307  .00007898  00000+0  51229-3 0  9993
2 32785  97.8210  45.5519 0009989  28.1207 332.0559 15.08327512969801
CANX-2                  
1 32790U 08021H   26066.18026434  .00005628  00000+0  40307-3 0  9997
2 32790  97.8566  44.0900 0011782  37.9204 322.2849 15.04761940969466
SEEDS II (CO-66)        
1 32791U 08021J   26065.91070525  .00024166  00000+0  86086-3 0  9990
2 32791  97.7521  59.2254 0001927   8.7916 351.3357 15.28931054971644
SWISSCUBE               
1 35932U 09051B   26065.19296202  .00001759  00000+0  35869-3 0  9992
2 35932  98.4101 331.2738 0006841 163.0927 197.0503 14.62248300874106
BEESAT-1                
1 35933U 09051C   26065.97151155  .00001276  00000+0  26698-3 0  9990
2 35933  98.4030 331.9117 0005127 171.6467 188.4820 14.61524816874256
ITUPSAT1                
1 35935U 09051E   26066.14747570  .00001168  00000+0  25199-3 0  9999
2 35935  98.4118 331.3878 0007091 186.1030 174.0084 14.60260933873845
TISAT 1                 
1 36799U 10035E   26066.07130427  .00026045  00000+0  96971-3 0  9998
2 36799  98.0650   3.9483 0000924 164.7587 195.3678 15.27464842852090
AEROCUBE 4.5A           
1 38767U 12048K   26066.16233554  .00103063  00000+0  11380-2 0  9992
2 38767  64.6388  28.8564 0041234 212.6337 147.2260 15.61445474356590
STRAND-1                
1 39090U 13009E   26065.98823255  .00000446  00000+0  16441-3 0  9997
2 39090  98.3885 248.7472 0008858 169.5759 190.5613 14.37091800682384
BRITE-AUSTRIA           
1 39091U 13009F   26066.02737135  .00000294  00000+0  11483-3 0  9997
2 39091  98.3952 248.0015 0010210 178.9457 181.1753 14.36494154682389
NEE-01 PEGASO           
1 39151U 13018B   26065.95250083  .00004206  00000+0  40902-3 0  9992
2 39151  98.1051 206.8606 0013655 137.5248 222.7030 14.93068309695440
POPACS 2                
1 39269U 13055E   26065.88638770  .00030289  00000+0  52838-3 0  9999
2 39269  80.9890 261.0259 0431225 161.7994 199.9221 14.87629889647983
POPACS 3                
1 39270U 13055F   26066.06516132  .00018181  00000+0  43792-3 0  9995
2 39270  81.0055 339.7546 0560794  20.6783 341.6145 14.53867411623708
ZACUBE-1 (TSHEPISOSAT)  
1 39417U 13066B   26066.12901184  .00005523  00000+0  43751-3 0  9993
2 39417  97.8183  27.9406 0042138 228.5830 131.1769 15.00291692665422
